[{"OBJECT_NAME":"STARLINK-5106","OBJECT_ID":"2022-177D","EPOCH":"2026-03-09T05:32:34.269216","MEAN_MOTION":15.02534164,"ECCENTRICITY":0.00011238,"INCLINATION":43.006,"RA_OF_ASC_NODE":136.0572,"ARG_OF_PERICENTER":254.3971,"MEAN_ANOMALY":105.6747,"EPHEMERIS_TYPE":0,"CLASSIFICATION_TYPE":"U","NORAD_CAT_ID":54823,"ELEMENT_SET_NO":999,"REV_AT_EPOCH":17688,"BSTAR":-1.6203346e-5,"MEAN_MOTION_DOT":-4.22e-6,"MEAN_MOTION_DDOT":0},{"OBJECT_NAME":"PICO-02A021","OBJECT_ID":"2024-149BY","EPOCH":"2026-03-09T03:41:37.126752","MEAN_MOTION":15.02201963,"ECCENTRICITY":0.00041954,"INCLINATION":97.6823,"RA_OF_ASC_NODE":147.908,"ARG_OF_PERICENTER":9.5557,"MEAN_ANOMALY":350.5747,"EPHEMERIS_TYPE":0,"CLASSIFICATION_TYPE":"U","NORAD_CAT_ID":60538,"ELEMENT_SET_NO":999,"REV_AT_EPOCH":8471,"BSTAR":0.00064833457,"MEAN_MOTION_DOT":8.488e-5,"MEAN_MOTION_DDOT":0}]
