STARLINK-5106           
1 54823U 22177D   26068.23095219 -.00000422  00000+0 -16203-4 0  9999
2 54823  43.0060 136.0572 0001123 254.3971 105.6747 15.02534164176880
PICO-02A021             
1 60538U 24149BY  26068.15390193  .00008488  00000+0  64833-3 0  9999
2 60538  97.6823 147.9080 0004195   9.5557 350.5747 15.02201963 84718
